IRIDIUM 36 [-]          
1 24967U 97056C   24073.22207775  .00000647  00000+0  21329-3 0  9999
2 24967  86.4026   6.5604 0002376  83.9531 276.1937 14.36671557386012
IRIDIUM 39 [-]          
1 25042U 97069D   24073.22155897  .00000955  00000+0  25244-3 0  9997
2 25042  86.3905  48.5989 0020136  49.3543 310.9407 14.47744698382493
IRIDIUM 38 [-]          
1 25043U 97069E   24073.05057199  .00000599  00000+0  19527-3 0  9996
2 25043  86.3912  67.0484 0003096 125.5762 234.5724 14.37107560379707
IRIDIUM 42 [-]          
1 25077U 97077A   24073.05969549  .00000540  00000+0  18146-3 0  9995
2 25077  86.3910  72.6554 0002288 105.8894 254.2555 14.35420227375029
IRIDIUM 44 [-]          
1 25078U 97077B   24073.20634336  .00000624  00000+0  19497-3 0  9999
2 25078  86.3929  55.7445 0004103  94.8877 265.2790 14.39243353377401
IRIDIUM 45 [-]          
1 25104U 97082A   24073.06831859  .00012248  00000+0  73648-3 0  9991
2 25104  86.3688 267.2753 0166544 228.1317 130.5606 14.99753767382681
IRIDIUM 24 [-]          
1 25105U 97082B   24073.06541372  .00000485  00000+0  14450-3 0  9996
2 25105  86.3856 275.5790 0012321 151.4115 208.7763 14.41014043377038
IRIDIUM 51 [-]          
1 25262U 98018A   24073.05589998  .00014755  00000+0  74013-3 0  9991
2 25262  86.3870 277.3881 0153097 175.2969 184.9751 15.07429332377133
